[{"OBJECT_NAME":"STARLINK-2151","OBJECT_ID":"2021-041D","EPOCH":"2026-03-24T05:06:42.462144","MEAN_MOTION":15.30169458,"ECCENTRICITY":0.00016061,"INCLINATION":53.1617,"RA_OF_ASC_NODE":74.912,"ARG_OF_PERICENTER":89.8943,"MEAN_ANOMALY":270.2242,"EPHEMERIS_TYPE":0,"CLASSIFICATION_TYPE":"U","NORAD_CAT_ID":48556,"ELEMENT_SET_NO":999,"REV_AT_EPOCH":26727,"BSTAR":-4.8390102e-5,"MEAN_MOTION_DOT":-1.791e-5,"MEAN_MOTION_DDOT":0},{"OBJECT_NAME":"STARLINK-2155","OBJECT_ID":"2021-041E","EPOCH":"2026-03-24T04:08:50.645760","MEAN_MOTION":15.30170126,"ECCENTRICITY":0.00013592,"INCLINATION":53.1621,"RA_OF_ASC_NODE":59.424,"ARG_OF_PERICENTER":94.5004,"MEAN_ANOMALY":265.6152,"EPHEMERIS_TYPE":0,"CLASSIFICATION_TYPE":"U","NORAD_CAT_ID":48557,"ELEMENT_SET_NO":999,"REV_AT_EPOCH":26749,"BSTAR":-7.5490654e-5,"MEAN_MOTION_DOT":-2.592e-5,"MEAN_MOTION_DDOT":0},{"OBJECT_NAME":"STARLINK-2166","OBJECT_ID":"2021-041F","EPOCH":"2026-03-24T04:05:48.570720","MEAN_MOTION":15.30172339,"ECCENTRICITY":0.00015515,"INCLINATION":53.1626,"RA_OF_ASC_NODE":59.4504,"ARG_OF_PERICENTER":93.5042,"MEAN_ANOMALY":266.6136,"EPHEMERIS_TYPE":0,"CLASSIFICATION_TYPE":"U","NORAD_CAT_ID":48558,"ELEMENT_SET_NO":999,"REV_AT_EPOCH":26663,"BSTAR":-5.8956502e-5,"MEAN_MOTION_DOT":-2.103e-5,"MEAN_MOTION_DDOT":0},{"OBJECT_NAME":"STARLINK-2187","OBJECT_ID":"2021-041K","EPOCH":"2026-03-24T05:21:35.333568","MEAN_MOTION":15.38349887,"ECCENTRICITY":0.00011569,"INCLINATION":53.1599,"RA_OF_ASC_NODE":58.595,"ARG_OF_PERICENTER":88.1026,"MEAN_ANOMALY":272.0111,"EPHEMERIS_TYPE":0,"CLASSIFICATION_TYPE":"U","NORAD_CAT_ID":48562,"ELEMENT_SET_NO":999,"REV_AT_EPOCH":26751,"BSTAR":0.0011275318,"MEAN_MOTION_DOT":0.00043114,"MEAN_MOTION_DDOT":0},{"OBJECT_NAME":"STARLINK-2188","OBJECT_ID":"2021-041L","EPOCH":"2026-03-24T05:33:47.024928","MEAN_MOTION":15.30178801,"ECCENTRICITY":0.00015876,"INCLINATION":53.1629,"RA_OF_ASC_NODE":59.1591,"ARG_OF_PERICENTER":92.9577,"MEAN_ANOMALY":267.1605,"EPHEMERIS_TYPE":0,"CLASSIFICATION_TYPE":"U","NORAD_CAT_ID":48563,"ELEMENT_SET_NO":999,"REV_AT_EPOCH":26750,"BSTAR":-1.8475626e-5,"MEAN_MOTION_DOT":-9.06e-6,"MEAN_MOTION_DDOT":0},{"OBJECT_NAME":"STARLINK-2190","OBJECT_ID":"2021-041M","EPOCH":"2026-03-24T05:21:37.598112","MEAN_MOTION":15.30194847,"ECCENTRICITY":0.00014521,"INCLINATION":53.1608,"RA_OF_ASC_NODE":59.1891,"ARG_OF_PERICENTER":100.4264,"MEAN_ANOMALY":259.6901,"EPHEMERIS_TYPE":0,"CLASSIFICATION_TYPE":"U","NORAD_CAT_ID":48564,"ELEMENT_SET_NO":999,"REV_AT_EPOCH":26750,"BSTAR":0.00025427708,"MEAN_MOTION_DOT":7.178e-5,"MEAN_MOTION_DDOT":0},{"OBJECT_NAME":"STARLINK-2214","OBJECT_ID":"2021-041P","EPOCH":"2026-03-24T04:11:22.337376","MEAN_MOTION":15.06387122,"ECCENTRICITY":0.00013974,"INCLINATION":53.0563,"RA_OF_ASC_NODE":76.5653,"ARG_OF_PERICENTER":85.2469,"MEAN_ANOMALY":274.868,"EPHEMERIS_TYPE":0,"CLASSIFICATION_TYPE":"U","NORAD_CAT_ID":48566,"ELEMENT_SET_NO":999,"REV_AT_EPOCH":26724,"BSTAR":8.501792e-5,"MEAN_MOTION_DOT":9.85e-6,"MEAN_MOTION_DDOT":0},{"OBJECT_NAME":"STARLINK-2217","OBJECT_ID":"2021-041R","EPOCH":"2026-03-24T06:31:26.148288","MEAN_MOTION":15.30186634,"ECCENTRICITY":0.00012795,"INCLINATION":53.162,"RA_OF_ASC_NODE":59.0101,"ARG_OF_PERICENTER":78.3142,"MEAN_ANOMALY":281.8002,"EPHEMERIS_TYPE":0,"CLASSIFICATION_TYPE":"U","NORAD_CAT_ID":48568,"ELEMENT_SET_NO":999,"REV_AT_EPOCH":26750,"BSTAR":-6.1222746e-5,"MEAN_MOTION_DOT":-2.171e-5,"MEAN_MOTION_DDOT":0},{"OBJECT_NAME":"STARLINK-2219","OBJECT_ID":"2021-041S","EPOCH":"2026-03-24T05:29:14.437248","MEAN_MOTION":15.30175171,"ECCENTRICITY":0.00013061,"INCLINATION":53.162,"RA_OF_ASC_NODE":59.1764,"ARG_OF_PERICENTER":83.9862,"MEAN_ANOMALY":276.1288,"EPHEMERIS_TYPE":0,"CLASSIFICATION_TYPE":"U","NORAD_CAT_ID":48569,"ELEMENT_SET_NO":999,"REV_AT_EPOCH":26750,"BSTAR":-4.1483322e-5,"MEAN_MOTION_DOT":-1.587e-5,"MEAN_MOTION_DDOT":0},{"OBJECT_NAME":"STARLINK-2220","OBJECT_ID":"2021-041T","EPOCH":"2026-03-24T06:45:19.190304","MEAN_MOTION":15.06376332,"ECCENTRICITY":0.00010505,"INCLINATION":53.0565,"RA_OF_ASC_NODE":76.1139,"ARG_OF_PERICENTER":99.4684,"MEAN_ANOMALY":260.6424,"EPHEMERIS_TYPE":0,"CLASSIFICATION_TYPE":"U","NORAD_CAT_ID":48570,"ELEMENT_SET_NO":999,"REV_AT_EPOCH":26725,"BSTAR":0.00027533697,"MEAN_MOTION_DOT":3.82e-5,"MEAN_MOTION_DDOT":0},{"OBJECT_NAME":"STARLINK-2221","OBJECT_ID":"2021-041U","EPOCH":"2026-03-24T06:00:23.544864","MEAN_MOTION":15.30172462,"ECCENTRICITY":0.00014821,"INCLINATION":53.1596,"RA_OF_ASC_NODE":71.9532,"ARG_OF_PERICENTER":84.7126,"MEAN_ANOMALY":275.4044,"EPHEMERIS_TYPE":0,"CLASSIFICATION_TYPE":"U","NORAD_CAT_ID":48571,"ELEMENT_SET_NO":999,"REV_AT_EPOCH":26732,"BSTAR":-2.5884003e-5,"MEAN_MOTION_DOT":-1.125e-5,"MEAN_MOTION_DDOT":0},{"OBJECT_NAME":"STARLINK-2222","OBJECT_ID":"2021-041V","EPOCH":"2026-03-24T05:15:05.010336","MEAN_MOTION":15.06392069,"ECCENTRICITY":0.00013249,"INCLINATION":53.0563,"RA_OF_ASC_NODE":76.395,"ARG_OF_PERICENTER":89.5032,"MEAN_ANOMALY":270.6108,"EPHEMERIS_TYPE":0,"CLASSIFICATION_TYPE":"U","NORAD_CAT_ID":48572,"ELEMENT_SET_NO":999,"REV_AT_EPOCH":26725,"BSTAR":0.00010891002,"MEAN_MOTION_DOT":1.341e-5,"MEAN_MOTION_DDOT":0},{"OBJECT_NAME":"STARLINK-2224","OBJECT_ID":"2021-041W","EPOCH":"2026-03-24T05:20:11.405472","MEAN_MOTION":15.30175808,"ECCENTRICITY":0.00013932,"INCLINATION":53.1612,"RA_OF_ASC_NODE":59.4345,"ARG_OF_PERICENTER":96.162,"MEAN_ANOMALY":263.954,"EPHEMERIS_TYPE":0,"CLASSIFICATION_TYPE":"U","NORAD_CAT_ID":48573,"ELEMENT_SET_NO":999,"REV_AT_EPOCH":26749,"BSTAR":-4.714369e-5,"MEAN_MOTION_DOT":-1.754e-5,"MEAN_MOTION_DDOT":0},{"OBJECT_NAME":"STARLINK-2225","OBJECT_ID":"2021-041X","EPOCH":"2026-03-24T03:11:04.835904","MEAN_MOTION":15.30184829,"ECCENTRICITY":0.00014006,"INCLINATION":53.1609,"RA_OF_ASC_NODE":33.9137,"ARG_OF_PERICENTER":87.1357,"MEAN_ANOMALY":272.9805,"EPHEMERIS_TYPE":0,"CLASSIFICATION_TYPE":"U","NORAD_CAT_ID":48574,"ELEMENT_SET_NO":999,"REV_AT_EPOCH":26784,"BSTAR":-3.950068e-5,"MEAN_MOTION_DOT":-1.528e-5,"MEAN_MOTION_DDOT":0},{"OBJECT_NAME":"STARLINK-2227","OBJECT_ID":"2021-041Y","EPOCH":"2026-03-24T02:36:54.617472","MEAN_MOTION":15.30177743,"ECCENTRICITY":0.00013803,"INCLINATION":53.1604,"RA_OF_ASC_NODE":21.2562,"ARG_OF_PERICENTER":104.7592,"MEAN_ANOMALY":255.3562,"EPHEMERIS_TYPE":0,"CLASSIFICATION_TYPE":"U","NORAD_CAT_ID":48575,"ELEMENT_SET_NO":999,"REV_AT_EPOCH":26803,"BSTAR":-3.2256047e-5,"MEAN_MOTION_DOT":-1.314e-5,"MEAN_MOTION_DDOT":0},{"OBJECT_NAME":"STARLINK-2228","OBJECT_ID":"2021-041Z","EPOCH":"2026-03-24T04:20:52.271520","MEAN_MOTION":15.30184387,"ECCENTRICITY":0.0001094,"INCLINATION":53.1618,"RA_OF_ASC_NODE":33.7004,"ARG_OF_PERICENTER":94.1241,"MEAN_ANOMALY":265.9885,"EPHEMERIS_TYPE":0,"CLASSIFICATION_TYPE":"U","NORAD_CAT_ID":48576,"ELEMENT_SET_NO":999,"REV_AT_EPOCH":26786,"BSTAR":0.00011906768,"MEAN_MOTION_DOT":3.167e-5,"MEAN_MOTION_DDOT":0},{"OBJECT_NAME":"STARLINK-2231","OBJECT_ID":"2021-041AA","EPOCH":"2026-03-24T05:00:26.925408","MEAN_MOTION":15.30177137,"ECCENTRICITY":0.00011356,"INCLINATION":53.1606,"RA_OF_ASC_NODE":59.451,"ARG_OF_PERICENTER":85.2373,"MEAN_ANOMALY":274.8758,"EPHEMERIS_TYPE":0,"CLASSIFICATION_TYPE":"U","NORAD_CAT_ID":48577,"ELEMENT_SET_NO":999,"REV_AT_EPOCH":26749,"BSTAR":-4.8477265e-5,"MEAN_MOTION_DOT":-1.793e-5,"MEAN_MOTION_DDOT":0},{"OBJECT_NAME":"STARLINK-2232","OBJECT_ID":"2021-041AB","EPOCH":"2026-03-24T07:12:23.504256","MEAN_MOTION":15.30172933,"ECCENTRICITY":0.00013966,"INCLINATION":53.1594,"RA_OF_ASC_NODE":58.8383,"ARG_OF_PERICENTER":94.2332,"MEAN_ANOMALY":265.8829,"EPHEMERIS_TYPE":0,"CLASSIFICATION_TYPE":"U","NORAD_CAT_ID":48578,"ELEMENT_SET_NO":999,"REV_AT_EPOCH":26751,"BSTAR":0.00019154885,"MEAN_MOTION_DOT":5.313e-5,"MEAN_MOTION_DDOT":0},{"OBJECT_NAME":"STARLINK-2234","OBJECT_ID":"2021-041AD","EPOCH":"2026-03-24T03:26:14.850816","MEAN_MOTION":15.30182234,"ECCENTRICITY":0.00014212,"INCLINATION":53.1608,"RA_OF_ASC_NODE":33.8712,"ARG_OF_PERICENTER":92.4555,"MEAN_ANOMALY":267.6608,"EPHEMERIS_TYPE":0,"CLASSIFICATION_TYPE":"U","NORAD_CAT_ID":48580,"ELEMENT_SET_NO":999,"REV_AT_EPOCH":26785,"BSTAR":-3.2648404e-5,"MEAN_MOTION_DOT":-1.325e-5,"MEAN_MOTION_DDOT":0},{"OBJECT_NAME":"STARLINK-2235","OBJECT_ID":"2021-041AE","EPOCH":"2026-03-24T04:09:24.520608","MEAN_MOTION":15.06381503,"ECCENTRICITY":0.00016194,"INCLINATION":53.0563,"RA_OF_ASC_NODE":31.6108,"ARG_OF_PERICENTER":78.1832,"MEAN_ANOMALY":281.9339,"EPHEMERIS_TYPE":0,"CLASSIFICATION_TYPE":"U","NORAD_CAT_ID":48581,"ELEMENT_SET_NO":999,"REV_AT_EPOCH":26788,"BSTAR":-5.3953981e-5,"MEAN_MOTION_DOT":-1.085e-5,"MEAN_MOTION_DDOT":0},{"OBJECT_NAME":"STARLINK-2236","OBJECT_ID":"2021-041AF","EPOCH":"2026-03-24T06:00:02.000160","MEAN_MOTION":15.07888519,"ECCENTRICITY":0.00016097,"INCLINATION":53.0553,"RA_OF_ASC_NODE":31.3947,"ARG_OF_PERICENTER":101.4882,"MEAN_ANOMALY":69.3973,"EPHEMERIS_TYPE":0,"CLASSIFICATION_TYPE":"U","NORAD_CAT_ID":48582,"ELEMENT_SET_NO":999,"REV_AT_EPOCH":578,"BSTAR":0.0026343584,"MEAN_MOTION_DOT":0.00040806,"MEAN_MOTION_DDOT":0},{"OBJECT_NAME":"STARLINK-2237","OBJECT_ID":"2021-041AG","EPOCH":"2026-03-24T05:25:41.191680","MEAN_MOTION":15.06386708,"ECCENTRICITY":0.00014069,"INCLINATION":53.0562,"RA_OF_ASC_NODE":76.3615,"ARG_OF_PERICENTER":81.8787,"MEAN_ANOMALY":278.2362,"EPHEMERIS_TYPE":0,"CLASSIFICATION_TYPE":"U","NORAD_CAT_ID":48583,"ELEMENT_SET_NO":999,"REV_AT_EPOCH":26725,"BSTAR":-7.363312e-6,"MEAN_MOTION_DOT":-3.91e-6,"MEAN_MOTION_DDOT":0},{"OBJECT_NAME":"STARLINK-2238","OBJECT_ID":"2021-041AH","EPOCH":"2026-03-24T06:00:02.000160","MEAN_MOTION":15.41624981,"ECCENTRICITY":9.752e-5,"INCLINATION":53.0546,"RA_OF_ASC_NODE":73.5535,"ARG_OF_PERICENTER":73.2334,"MEAN_ANOMALY":145.3396,"EPHEMERIS_TYPE":0,"CLASSIFICATION_TYPE":"U","NORAD_CAT_ID":48584,"ELEMENT_SET_NO":999,"REV_AT_EPOCH":583,"BSTAR":0.033455441,"MEAN_MOTION_DOT":0.01567005,"MEAN_MOTION_DDOT":0}]
